STARLINK-5617           
1 55753U 23028N   25311.40302337 -.00000840  00000+0 -62663-4 0  9994
2 55753  69.9997 192.7497 0002712 270.8724  89.2124 14.98324418147728
STARLINK-5612           
1 55754U 23028P   25311.66155076 -.00001660  00000+0 -13134-3 0  9998
2 55754  69.9971 192.0465 0003113 270.2982  89.7820 14.98337082147768
STARLINK-5619           
1 55755U 23028Q   25311.84947380 -.00000540  00000+0 -37480-4 0  9993
2 55755  70.0033 191.4872 0002325 327.4942  32.6074 14.98331964147795
STARLINK-5614           
1 55756U 23028R   25311.84513022 -.00000851  00000+0 -63574-4 0  9994
2 55756  69.9991 191.4823 0002456 271.5837  88.5040 14.98331985147795
STARLINK-5544           
1 55757U 23028S   25311.66573340  .00000171  00000+0  22081-4 0  9995
2 55757  70.0032 192.0644 0001565 248.9081 111.1910 14.98322117147765
STARLINK-5072           
1 55758U 23028T   25311.65737811 -.00001717  00000+0 -13613-3 0  9999
2 55758  70.0003 192.0294 0002535 275.1627  84.9242 14.98336335147763
STARLINK-5532           
1 55760U 23028V   25311.84095763 -.00000516  00000+0 -35460-4 0  9997
2 55760  70.0000 191.4691 0002446 267.1170  92.9709 14.98328110147794
STARLINK-5611           
1 55761U 23028W   25311.35274168  .00000828  00000+0  77160-4 0  9999
2 55761  69.9995 173.0976 0002354 270.8480  89.2409 14.98334790148204
STARLINK-5603           
1 55762U 23028X   25311.60708620 -.00000970  00000+0 -73555-4 0  9997
2 55762  69.9969 172.3785 0002656 278.3913  81.6945 14.98328758148247
STARLINK-5593           
1 55763U 23028Y   25311.84930476 -.00000880  00000+0 -66003-4 0  9990
2 55763  70.0005 191.4964 0002187 282.5931  77.4983 14.98329953147791
STARLINK-5499           
1 55764U 23028Z   25311.34417471  .00005622  00000+0  47805-3 0  9996
2 55764  69.9983 173.0664 0002754 266.4748  93.6096 14.98373826148204
STARLINK-5595           
1 55765U 23028AA  25311.61542176  .00003713  00000+0  31869-3 0  9990
2 55765  70.0014 172.4081 0003080 269.7862  90.2944 14.98343001148246
STARLINK-5599           
1 55766U 23028AB  25311.32334663  .00000080  00000+0  14466-4 0  9998
2 55766  69.9990 172.9922 0002833 273.8907  86.1928 14.98329924148207
STARLINK-5606           
1 55767U 23028AC  25311.61961728 -.00000340  00000+0 -20711-4 0  9990
2 55767  69.9958 172.4224 0002643 265.9441  94.1416 14.98338852148229
STARLINK-5584           
1 55769U 23028AE  25311.59873729  .00000255  00000+0  29122-4 0  9990
2 55769  69.9990 172.3463 0002049 286.5685  73.5249 14.98329712148242
STARLINK-5557           
1 55770U 23028AF  25311.86160412  .00000799  00000+0  74728-4 0  9995
2 55770  69.9984 171.6605 0002925 272.1258  87.9566 14.98343839148288
STARLINK-5591           
1 55771U 23028AG  25311.58620876 -.00003445  00000+0 -28103-3 0  9998
2 55771  69.9981 172.3031 0003086 274.7281  85.3526 14.98334467148241
STARLINK-5835           
1 55772U 23028AH  25311.83672491 -.00000609  00000+0 -43262-4 0  9990
2 55772  69.9969 171.5742 0002689 273.2885  86.7966 14.98337210148286
STARLINK-5833           
1 55773U 23028AJ  25311.60291303 -.00000386  00000+0 -24599-4 0  9999
2 55773  69.9992 172.3600 0002713 271.1860  88.8988 14.98328989148249
STARLINK-5812           
1 55774U 23028AK  25311.84909700 -.00001087  00000+0 -83335-4 0  9995
2 55774  69.9987 171.6156 0002404 269.0702  91.0182 14.98319470148281
STARLINK-5809           
1 55775U 23028AL  25311.84492573  .00001057  00000+0  96401-4 0  9994
2 55775  69.9977 171.6022 0003487 263.2009  96.8753 14.98312249148285
STARLINK-5810           
1 55776U 23028AM  25311.83336806  .01019558  00000+0  46474-2 0  9999
2 55776  69.9951 162.6038 0004032 267.8471 181.6636 15.81018054  5909
STARLINK-5814           
1 55777U 23028AN  25311.83656588  .00000359  00000+0  37844-4 0  9993
2 55777  69.9999 171.5721 0002148 264.1146  95.9768 14.98329714148282
STARLINK-5816           
1 55778U 23028AP  25311.83238441 -.00000244  00000+0 -12688-4 0  9992
2 55778  69.9988 171.5580 0002476 274.2836  85.8040 14.98329056148286
STARLINK-5817           
1 55779U 23028AQ  25311.00181359  .00000796  00000+0  74498-4 0  9994
2 55779  69.9980 153.5945 0002798 267.3254  92.7585 14.98337121148652
STARLINK-5819           
1 55780U 23028AR  25311.82821039  .00000005  00000+0  82497-5 0  9994
2 55780  69.9988 171.5427 0002573 270.1711  89.9153 14.98329124148280
STARLINK-5820           
1 55781U 23028AS  25311.84073322 -.00000395  00000+0 -25333-4 0  9990
2 55781  69.9981 171.6207 0002674 273.8099  86.2754 14.98331069148280
STARLINK-5826           
1 55782U 23028AT  25311.26487753 -.00000307  00000+0 -17965-4 0  9999
2 55782  69.9981 153.3141 0002891 270.6798  89.4029 14.98328828148680
STARLINK-5825           
1 55783U 23028AU  25310.99766765  .00000321  00000+0  34688-4 0  9997
2 55783  69.9973 153.9851 0002840 271.2310  88.8523 14.98335871148641
STARLINK-5797           
1 55784U 23028AV  25311.84902501  .00002439  00000+0  21203-3 0  9993
2 55784  69.9986 151.7400 0002995 271.7751  88.3065 14.98345353148773
STARLINK-5818           
1 55785U 23028AW  25311.52757720  .00000414  00000+0  42513-4 0  9999
2 55785  69.9928 152.6266 0002010 291.7030  68.3914 14.98334728148720
STARLINK-5823           
1 55786U 23028AX  25311.84886017 -.00000791  00000+0 -58530-4 0  9993
2 55786  69.9976 151.7391 0002722 271.5183  88.5664 14.98329920148777
STARLINK-5811           
1 55787U 23028AY  25311.85720507 -.00000415  00000+0 -26946-4 0  9995
2 55787  70.0000 151.7688 0003258 271.0475  89.0311 14.98327889148779
STARLINK-5804           
1 55788U 23028AZ  25311.85303094 -.00000137  00000+0 -37132-5 0  9995
2 55788  69.9995 151.7545 0003014 271.1931  88.8882 14.98329593148774
STARLINK-5815           
1 55789U 23028BA  25311.82798698 -.00000220  00000+0 -10680-4 0  9992
2 55789  69.9976 151.6655 0002787 269.1325  90.9515 14.98329407148776
STARLINK-5813           
1 55790U 23028BB  25311.83232955 -.00001128  00000+0 -86777-4 0  9992
2 55790  69.9971 151.6824 0002532 266.8565  93.2304 14.98328331148776
STARLINK-5807           
1 55791U 23028BC  25311.84468186  .00000372  00000+0  38968-4 0  9998
2 55791  69.9955 151.7254 0003195 269.7782  90.3011 14.98329297148771
ONEWEB-0530             
1 55796U 23029A   25311.42609756  .00000031  00000+0  44787-4 0  9996
2 55796  87.9185 318.7124 0001372  85.3001 274.8289 13.20770322131875
ONEWEB-0534             
1 55797U 23029B   25311.71649983 -.00000021  00000+0 -84038-4 0  9999
2 55797  87.9187 318.6560 0001912  95.3426 264.7925 13.20771411131913
ONEWEB-0556             
1 55798U 23029C   25311.72280891 -.00000002  00000+0 -36528-4 0  9990
2 55798  87.9188 318.6535 0001496 114.4951 245.6339 13.20771036131910
ONEWEB-0562             
1 55799U 23029D   25311.48289769 -.00000062  00000+0 -18337-3 0  9990
2 55799  87.9185 318.6850 0000989 100.2577 259.8668 13.20773293131886
ONEWEB-0563             
1 55800U 23029E   25311.77962775 -.00000067  00000+0 -19668-3 0  9993
2 55800  87.9187 318.6516 0001964  99.5337 260.6018 13.20771138131917
ONEWEB-0564             
1 55801U 23029F   25311.77331465 -.00000030  00000+0 -10455-3 0  9995
2 55801  87.9180 318.6308 0001433  90.6001 269.5297 13.20771387131925
ONEWEB-0638             
1 55802U 23029G   25311.81419806 -.00000021  00000+0 -92373-4 0  9997
2 55802  87.8994 333.8740 0001586 106.4533 253.6771 13.14501042130317
ONEWEB-0639             
1 55803U 23029H   25311.79852128 -.00000064  00000+0 -19150-3 0  9991
2 55803  87.9223 349.0349 0002980 105.8829 254.2632 13.19726198129708
ONEWEB-0640             
1 55804U 23029J   25311.82369889  .00000184  00000+0  46112-3 0  9992
2 55804  87.8997 333.8581 0001885 118.5611 241.5708 13.14504440130331
ONEWEB-0641             
1 55805U 23029K   25311.56632431 -.00000134  00000+0 -36692-3 0  9999
2 55805  87.9230 349.0580 0002133  98.7844 261.3530 13.19726935129684
ONEWEB-0642             
1 55806U 23029L   25311.56158888  .00000074  00000+0  15167-3 0  9994
2 55806  87.9218 349.0861 0002784  99.1539 260.9909 13.19726506129679
ONEWEB-0643             
1 55807U 23029M   25311.79356928 -.00000156  00000+0 -45426-3 0  9999
2 55807  87.8999 333.8493 0002545  90.3561 269.7860 13.14500142130306
ONEWEB-0644             
1 55808U 23029N   25311.55684830  .00000034  00000+0  51360-4 0  9998
2 55808  87.9221 349.0963 0002379  98.2340 261.9062 13.19726363129670
ONEWEB-0645             
1 55809U 23029P   25311.49252720  .00000025  00000+0  30612-4 0  9998
2 55809  87.9218 349.0991 0002226 108.9677 251.1696 13.18131653129665
ONEWEB-0646             
1 55810U 23029Q   25311.82378830  .00000047  00000+0  84630-4 0  9991
2 55810  87.9223 349.0273 0002248  96.4600 263.6789 13.19722863129691
ONEWEB-0648             
1 55811U 23029R   25311.76187075  .00000091  00000+0  21137-3 0  9995
2 55811  87.8996 333.8175 0002633 105.6651 254.4770 13.14502237130301
ONEWEB-0649             
1 55812U 23029S   25311.39414698 -.00002322  00000+0 -58318-2 0  9990
2 55812  87.9240 349.1081 0003614 103.8058 256.3477 13.19755967129670
ONEWEB-0650             
1 55813U 23029T   25311.54104807  .00000027  00000+0  34259-4 0  9994
2 55813  87.9216 349.0865 0002081  97.2569 262.8800 13.19726600129666
ONEWEB-0652             
1 55814U 23029U   25311.81896001  .00007220  00000+0  19433-1 0  9995
2 55814  87.8998 333.8277 0002117  87.8260 272.3112 13.14469742130282
ONEWEB-0653             
1 55815U 23029V   25311.80312083 -.00001015  00000+0 -27741-2 0  9998
2 55815  87.9046 333.8200 0002047  90.7056 269.4308 13.14479864130316
ONEWEB-0654             
1 55816U 23029W   25311.79832563 -.00000150  00000+0 -43897-3 0  9997
2 55816  87.8995 333.8203 0001514  90.0682 270.0621 13.14504297130335
ONEWEB-0656             
1 55817U 23029X   25311.76699638  .00000022  00000+0  22647-4 0  9996
2 55817  87.9192 318.5857 0001442  84.9397 275.1901 13.20772479131925
